0 ARIANE 40 R/B
1 22830U 93061H   13282.03384978  .00000165  00000-0  80151-4 0    06
2 22830 098.7907 249.9887 0009886 262.3237 140.8894 14.30933044 45543
0 ARIANE 40 R/B
1 22830U 93061H   13283.45487588  .00000149  00000-0  73881-4 0    19
2 22830 098.7909 251.4258 0009902 257.6886 261.5817 14.30933943 45747
0 ARIANE 40 R/B
1 22830U 93061H   13285.81268978  .00000152  00000-0  75140-4 0    37
2 22830 098.7911 253.8101 0009923 249.9563 168.3711 14.30934814 46085
0 ARIANE 40 R/B
1 22830U 93061H   13286.86109667  .00000168  00000-0  81191-4 0    43
2 22830 098.7914 254.8703 0009986 246.6737 169.3135 14.30935247 46232
0 ARIANE 40 R/B
1 22830U 93061H   13287.97697426  .00000229  00000-0  10444-3 0    52
2 22830 098.7917 255.9986 0010032 243.1265 157.8906 14.30936113 46390
0 ARIANE 40 R/B
1 22830U 93061H   13289.46706206  .00000168  00000-0  81310-4 0    69
2 22830 098.7921 257.5055 0010106 238.4461 274.2055 14.30937131 46601
0 ARIANE 40 R/B
1 22830U 93061H   13290.51314572  .00000203  00000-0  94418-4 0    72
2 22830 098.7924 258.5634 0010137 235.1353 263.2243 14.30937618 46759
0 ARIANE 40 R/B
1 22830U 93061H   13291.82597269  .00000229  00000-0  10444-3 0    88
2 22830 098.7927 259.8912 0010156 230.9326 186.4522 14.30938012 46945
0 ARIANE 40 R/B
1 22830U 93061H   13292.87372137  .00000256  00000-0  11481-3 0    92
2 22830 098.7929 260.9509 0010215 227.6505 184.0181 14.30938556 47095
0 ARIANE 40 R/B
1 22830U 93061H   13294.14053285  .00000249  00000-0  11198-3 0   103
2 22830 098.7931 262.2323 0010278 223.7291 230.0608 14.30939522 47275
0 ARIANE 40 R/B
1 22830U 93061H   13295.47991015  .00000267  00000-0  11902-3 0   116
2 22830 098.7931 263.5871 0010360 219.6815 289.8344 14.30940350 47466
